{"type":"FeatureCollection","features":[{"type":"Feature","properties":{"name":"Skogseidvatnet","source":"NVE Innsj\u00f8database 2043"},"geometry":{"type":"Polygon","coordinates":[[[5.919528867018572,60.24520427366211],[5.918970489879497,60.24543777315497],[5.918372181632785,60.24568794573106],[5.91830636858124,60.24566777147932],[5.917711615533129,60.24552489297499],[5.917322602823721,60.245423227287255],[5.916641653700351,60.24510793325506],[5.916100310727655,60.24490664700026],[5.915830261838486,60.244875721954074],[5.915103090228457,60.244812617929476],[5.914704203976465,60.24456865068036],[5.913803928931126,60.24434104546113],[5.913172303690772,60.244137671292286],[5.9109671407788955,60.243178869223854],[5.910418440880219,60.2428551370545],[5.909888427479083,60.24254263338868],[5.909744826226933,60.2423415806343],[5.909516121445627,60.24227337130036],[5.908894312697769,60.24158490253334],[5.9087958691569336,60.241286021673595],[5.908622021647906,60.24102151567863],[5.908446659898272,60.24077479838968],[5.907766018451314,60.240327618506996],[5.9073972024670125,60.24021122797582],[5.907231588592143,60.24005455979456],[5.9067370821363205,60.239737534151814],[5.906546460748179,60.23965215794386],[5.906365011192105,60.23946827679876],[5.906100402186249,60.23939920646808],[5.905877294560713,60.23946585007297],[5.90561406557004,60.23938404119629],[5.905596353243976,60.23937847954088],[5.9046467889590994,60.2392934382142],[5.904425893366569,60.23933330132575],[5.904028324700305,60.2393328494538],[5.903759532487049,60.23930867128574],[5.9029760131566515,60.23899379746333],[5.902716296472255,60.23868231704897],[5.902685351928126,60.23864737302822],[5.902575223112089,60.238454226293946],[5.902092586509343,60.23820939482095],[5.902074351446632,60.23808088963708],[5.901955458446471,60.23793666059236],[5.9020487364799665,60.237714194157725],[5.90180855611248,60.23719638505109],[5.901719008049683,60.23699661666029],[5.901721456274178,60.23650940586326],[5.901723173007795,60.23618797845826],[5.901551445029141,60.23599093360966],[5.901315644815279,60.23572014321286],[5.901056993059475,60.23558830208887],[5.9010986842551665,60.23533777908109],[5.900758243552305,60.234939466930015],[5.900236133614243,60.23432904964319],[5.900249421344756,60.23380833629098],[5.900000047372806,60.23338794052362],[5.899984450196805,60.233361828782975],[5.8994741665205925,60.23302641599551],[5.899347547341445,60.23264604683346],[5.899357541200371,60.23234968208395],[5.899167393346037,60.23187807111509],[5.899251796102546,60.231745185327384],[5.899178755558387,60.23156381677678],[5.89898817599042,60.23147851982465],[5.8986250312021005,60.23149696589296],[5.897718678492894,60.23171832425696],[5.895642892631474,60.23169683164767],[5.895375921582879,60.23165468438105],[5.895151724610161,60.23154147997306],[5.894848988549344,60.23111204681344],[5.89460862713139,60.23098064225508],[5.894259943738989,60.23084671271969],[5.893886168596702,60.230595277305255],[5.893181424303859,60.2305967580115],[5.892764908664821,60.23041628690776],[5.892497952186409,60.23037413413195],[5.8915406734459745,60.230369605980755],[5.890736355550173,60.230278868323026],[5.889382065613253,60.22969899409184],[5.888434174982385,60.22940715974738],[5.888341242322547,60.22924320270759],[5.887940366154441,60.22909009607543],[5.886860427305786,60.22904676298873],[5.886494804983165,60.22890341324233],[5.886188985776785,60.22888720395923],[5.885455436053887,60.22884435106422],[5.885416631458908,60.22884211520327],[5.88538183244388,60.22882687169405],[5.8850890825599835,60.22869715062409],[5.885052239672374,60.22868077132012],[5.88503168550395,60.22866073041036],[5.884920072962414,60.22855187000154],[5.884519922052214,60.22838976453467],[5.883883054740538,60.22843773848198],[5.882974735831111,60.22829943792118],[5.8825274830755925,60.22825299594817],[5.882088768712759,60.22811704004478],[5.881044994811746,60.22807444591832],[5.880549760328156,60.22796384928323],[5.879998577108653,60.22787006896692],[5.8787977449898925,60.22795873182751],[5.875622446708415,60.22791075993939],[5.87514037320225,60.22766576161159],[5.874722782574135,60.22730548471064],[5.874468686835613,60.22712880146182],[5.8744634236754205,60.226993956866984],[5.874210895440323,60.22686419647711],[5.8741878099673235,60.22685256368337],[5.874209602734257,60.22684612198054],[5.874410888951411,60.22678597323214],[5.874457327147897,60.22667929648691],[5.874431058582322,60.22664855438521],[5.874246048032551,60.22643156391079],[5.8741948675523865,60.22631079657895],[5.8741575751040465,60.226222804792016],[5.873926595140598,60.226181479832874],[5.873424393775702,60.22595396610762],[5.872576275692607,60.225754240949925],[5.871989240532688,60.225659563974],[5.871435630418821,60.225272033691766],[5.871125593377481,60.22505522044767],[5.871104439936409,60.22502763403534],[5.8709004849395665,60.22476232730267],[5.870850138610207,60.22471120577706],[5.870373340123347,60.22422868109158],[5.870279876903476,60.22410326043918],[5.870158219860141,60.22393973274259],[5.870053152228338,60.223798684885416],[5.870051295228209,60.2237450530949],[5.870018449744924,60.2228365680654],[5.869993911881206,60.22280097414227],[5.869868127260714,60.22262043984243],[5.869827918043145,60.22256233914772],[5.869718257836491,60.22250701061479],[5.869379577208578,60.22233610351414],[5.869114687884579,60.22227587639082],[5.868398612565485,60.22227037381343],[5.867977502498323,60.222267084375105],[5.867533123247124,60.22238237968912],[5.867170070151691,60.22240074099888],[5.866938154516198,60.222179577354126],[5.866840974975887,60.22212899869202],[5.86675755887264,60.2220857017546],[5.866594071743438,60.22200078593337],[5.86541051190133,60.221909943016016],[5.865010516597709,60.22193630745179],[5.8642939634993105,60.22168582643229],[5.863971423270414,60.22166017622557],[5.863705406068201,60.2217976048032],[5.8635122438536005,60.2219278912667],[5.863207660790128,60.222091380946836],[5.863023155580327,60.222131890591946],[5.862666063846072,60.222087569903024],[5.8622558524557355,60.221901733148975],[5.86216418348246,60.221860028854294],[5.8621179983379985,60.22181615123148],[5.8617666454951864,60.221482114308884],[5.860675815797637,60.22136648752102],[5.860356694148328,60.22111638641423],[5.859874276585396,60.22087138863931],[5.8594604934988945,60.22085240231804],[5.859158471428954,60.2208947737553],[5.859021188067077,60.22091397572666],[5.858831578152342,60.22100826113644],[5.8584660140302365,60.22143095548174],[5.858325309536366,60.22176904410037],[5.857878957260368,60.22190224649063],[5.857246414082392,60.22190528853952],[5.8567443307204226,60.22205513041539],[5.856347139461927,60.22205464056838],[5.856258641062124,60.22203466219955],[5.856172395136351,60.22203318711794],[5.855904243629398,60.2219633059564],[5.8556940091732494,60.221893563351856],[5.855587707487003,60.221874877700614],[5.8555377774599435,60.221828839109754],[5.855089798828987,60.22179119455951],[5.854768969984132,60.221558944657026],[5.8545375022115795,60.22133778598666],[5.854283206436559,60.221161042580455],[5.853913233005465,60.22111995893022],[5.8538721870739625,60.2211153882969],[5.8536634974887285,60.22107186881648],[5.853319751198305,60.22100856598137],[5.853286915631898,60.22100257762985],[5.853104106601449,60.22088439607182],[5.853049251304839,60.220864314092076],[5.853013169272243,60.220843368216215],[5.852996874414484,60.2207959613894],[5.852946677472353,60.22065129979499],[5.852930101111488,60.22060360224477],[5.8529281886441495,60.220598769582665],[5.852961870098143,60.22056423679906],[5.853108659480761,60.22041420093729],[5.853109812184974,60.22040298373867],[5.853147130812148,60.220010804087984],[5.852748253680329,60.21965101974745],[5.852524289834515,60.21953774806891],[5.852376496400394,60.219435285373585],[5.852203790227852,60.219315454658634],[5.852202410716003,60.21931454532647],[5.851563039031687,60.219022628317006],[5.851366297590857,60.21893275748755],[5.851288530159177,60.21889725326489],[5.851268271185305,60.21888789107726],[5.851225706962437,60.21885899232653],[5.850878547687894,60.218622368696515],[5.8507764037438665,60.21855272278374],[5.850776921085342,60.21851208821645],[5.8507777431431105,60.21836627369782],[5.850778034387939,60.21832191786982],[5.850779197388843,60.218148380721466],[5.850641090671341,60.21803023062481],[5.8505955413024155,60.21799127267404],[5.850465121722157,60.2177177531561],[5.85045205784024,60.217690544274056],[5.8503700867090265,60.217518726529924],[5.850438224328267,60.21738871041426],[5.850546957840534,60.217181441937974],[5.850348799958707,60.21698545586192],[5.850184070543466,60.21682243293181],[5.85000010793307,60.21677312450315],[5.849976281439719,60.21676676754945],[5.849779144736536,60.216713921465924],[5.84962943693553,60.21668299219836],[5.849336340393984,60.21662256683424],[5.848704814915325,60.216616505335274],[5.848250028111205,60.21683928507528],[5.847976169660645,60.216868766704195],[5.847618452422181,60.21679977466919],[5.84739117394578,60.216755944430254],[5.846724604926001,60.21598526520683],[5.846674474380455,60.21590188160843],[5.846601942206306,60.21578187198946],[5.846537784374917,60.21567536928633],[5.845816239712973,60.21528976148669],[5.845288757651877,60.21495371608129],[5.845243294201734,60.214862793478254],[5.84501086066226,60.21483929652294],[5.844517531358807,60.21471069582266],[5.84437760733955,60.21466245527814],[5.844338367188689,60.21450869955025],[5.843935953558252,60.214373319097795],[5.843622834993428,60.21443783689037],[5.8430272560637695,60.21443262127575],[5.8429334030226725,60.21437493291995],[5.8429229087764485,60.21436832769195],[5.8429146520434845,60.21436151670272],[5.842654713961734,60.214143862461626],[5.842646175811715,60.21413676071971],[5.842557669124832,60.21406200087903],[5.8416268538160585,60.214012652878],[5.841567216561919,60.214007054644014],[5.8415257982784325,60.21398898708476],[5.841471262906409,60.213981394134905],[5.841223487212636,60.21396468492148],[5.840972020526528,60.21386809329113],[5.840729981571266,60.21373410750014],[5.840453090316618,60.21349348589278],[5.840099566181253,60.2131882376617],[5.839778346517541,60.21289472777816],[5.839712341341804,60.212709641715115],[5.839616508110691,60.21254859825677],[5.839597697599416,60.212484383564494],[5.839611063749343,60.212397464718904],[5.839683529186445,60.2122095493007],[5.839804032930872,60.21198385626217],[5.839900562221945,60.21192930071908],[5.839954467590607,60.21191199605115],[5.84057122606684,60.211755837557945],[5.84090077839844,60.211655416492746],[5.840960630026228,60.21164602706084],[5.841257925624743,60.21162931057681],[5.841484806272778,60.21157687101349],[5.841581800733611,60.21153744028405],[5.84159787106438,60.21150999911893],[5.841610696918541,60.21135715568928],[5.84189011239694,60.21115273902125],[5.84199549727954,60.21100335753515],[5.842057694000899,60.21094686222398],[5.842066299627085,60.21091754561298],[5.842070461983788,60.21082393062286],[5.842043826930945,60.2107972216782],[5.8419649084344325,60.21075557498991],[5.841859596822004,60.21072447265571],[5.841786910875258,60.210647740448174],[5.841684422026785,60.21062081121043],[5.84164923794665,60.210598025915765],[5.841643098619139,60.21057012292001],[5.841652698494695,60.21054114669355],[5.841715797466641,60.210535056052564],[5.8423512800293445,60.21067392934062],[5.842546263256015,60.2106929271899],[5.842914718993598,60.21074542169014],[5.8429956083740455,60.21081947056383],[5.843640815708479,60.21087080344208],[5.844484122514364,60.21111550640596],[5.844947313144165,60.21118055387927],[5.845292915040885,60.21134153289245],[5.845848126020704,60.21139065767452],[5.846017036491204,60.21132278846782],[5.8461072510468695,60.21113619700214],[5.846120164360098,60.21100170726438],[5.845844759448759,60.210671725748],[5.846205227075023,60.21049156045613],[5.8465278180110385,60.21051726373676],[5.846799673966388,60.21069443623319],[5.846972848791916,60.2109590972275],[5.847561103940099,60.21141351546562],[5.848584012990152,60.21186012139949],[5.848635040974904,60.211876957267144],[5.849052740804999,60.2120134775634],[5.849354012653982,60.212111891130135],[5.849509560075804,60.21218660984875],[5.849630257554049,60.21224444341699],[5.850000047807542,60.212348525485446],[5.851476407584708,60.2127645570304],[5.85245532329246,60.213102325649814],[5.853593784213434,60.213282081339436],[5.854495600602369,60.213483152341674],[5.855123526620993,60.2135250898367],[5.85545377496381,60.21346670768223],[5.855840053599767,60.213398301418145],[5.856204723448805,60.213173303095125],[5.856303390598083,60.21308580678454],[5.856455759530086,60.21297393564992],[5.856500100775095,60.21294149920079],[5.856517016731215,60.21292911830512],[5.856534582366121,60.2128781911095],[5.856567029795155,60.212786543651454],[5.856522422362766,60.212727408571766],[5.856470758245932,60.21265847401078],[5.856445500050285,60.21244695067455],[5.856440615366572,60.212406121736905],[5.8572013091143065,60.21160293548185],[5.857393162155115,60.21140017657527],[5.857466976926314,60.21132224970272],[5.8576058116788685,60.21117572619033],[5.857839133474012,60.21081289775853],[5.8579241638227835,60.20973662277056],[5.85801322577143,60.20962893673835],[5.858310044745228,60.20927016006979],[5.858332537510033,60.20924307357234],[5.858705813608505,60.208550964797595],[5.859872511282631,60.20805742305884],[5.859879450501474,60.20787669822276],[5.859884425573362,60.207743104377776],[5.859900495819897,60.20773436995929],[5.860322686223446,60.20750206475187],[5.860376888642311,60.20731468273843],[5.8605176310970215,60.20716512704921],[5.860325129759058,60.20701952828633],[5.860248021210083,60.206961028117824],[5.860244087112098,60.20695433793666],[5.860154555022565,60.206806133291806],[5.860467816341699,60.206552973240534],[5.860330443451742,60.2062891954959],[5.860610211476517,60.20619683926892],[5.86076617697197,60.206058373338436],[5.860807323447911,60.20602173752943],[5.860965110002944,60.205881951947525],[5.860571588036992,60.20565677111616],[5.860027625362616,60.20530246866983],[5.859477867588029,60.205010934608545],[5.858585641762079,60.204711049450395],[5.858266533329674,60.20464982611489],[5.858035799819735,60.204523436857954],[5.858009207107665,60.2045088451347],[5.858028436309559,60.20450114398308],[5.858039902584288,60.20449651833862],[5.858178259795183,60.204440882743775],[5.858206097927127,60.20444326962848],[5.85880531325214,60.204491787615936],[5.859850871990372,60.204696224284525],[5.8602017628761445,60.20480339495229],[5.860788364754148,60.2048982038791],[5.86105698952037,60.204922563595325],[5.861371664243872,60.20502875073349],[5.86182277904284,60.205030451185344],[5.862153961636366,60.20496642803014],[5.862181869522652,60.20494396514742],[5.862517788562137,60.204672041229],[5.862682291214429,60.204538685769954],[5.862723148503419,60.2044933532681],[5.862816602458853,60.204389314607425],[5.8630460052662725,60.20413393971637],[5.862961840501267,60.20350295428598],[5.862933264179323,60.203464998911265],[5.86286574565581,60.203374901787086],[5.862819452304742,60.20316508354065],[5.862797285032678,60.20306412866392],[5.862790838583676,60.20303466974762],[5.86279023412208,60.20303164530831],[5.862815098562306,60.20302261789606],[5.863145251967897,60.2029051993571],[5.8631221759133645,60.20287223536248],[5.863050040824914,60.20276817064967],[5.863047785195778,60.202745781186934],[5.863046026140061,60.20272939110866],[5.863012385528696,60.20240775182188],[5.863282426417221,60.20222560437352],[5.863374632045524,60.202138289157226],[5.863421316614636,60.2020941748762],[5.863497133104903,60.202067900390524],[5.863738693017024,60.201984724710954],[5.864188179663652,60.202004381267955],[5.865127415665018,60.20218828743149],[5.865816122691312,60.202159663400984],[5.866036423036797,60.20211992437832],[5.86609252411107,60.20215879643092],[5.866274980871819,60.20228516189718],[5.866327839423028,60.20232200110014],[5.866358191106216,60.20234326883128],[5.866624883182566,60.20238546862918],[5.866877559686115,60.202322851893996],[5.867253551292119,60.20222966498473],[5.867409602397578,60.20210755758324],[5.867415852042527,60.20210274972858],[5.867460001207351,60.20206830924271],[5.867565652311789,60.201985449971616],[5.867844910604041,60.201820834945366],[5.868136400077252,60.20164884449707],[5.868254267276163,60.20157939537302],[5.868344279233072,60.201581488019386],[5.868560522553516,60.20158665154488],[5.868741637578212,60.20164784916989],[5.868875167269775,60.201692909235874],[5.869145535712775,60.201699299124215],[5.8691927637359065,60.20162729466425],[5.869242761862344,60.20155123483723],[5.869546646077535,60.20108872947001],[5.8696490562418075,60.20108544607937],[5.870180348775654,60.20106774281239],[5.8703733367358835,60.20101073711844],[5.870997752832557,60.20082651554481],[5.871004164139958,60.20082696058532],[5.871625465185877,60.20086836948938],[5.872100475920176,60.20096342732308],[5.872387181116892,60.2010210128391],[5.872804953431865,60.20118367293099],[5.873245864985633,60.20129289849421],[5.873607607907735,60.201472182679574],[5.873610059788462,60.201900371925134],[5.873610348897803,60.20194666432503],[5.8736126460493,60.20237086634739],[5.873699176151096,60.2025973874704],[5.873432592722225,60.20293270942264],[5.8733324043572495,60.203226888897824],[5.872699519779817,60.20342761657712],[5.87270897901425,60.20351765470499],[5.873293322547617,60.20382797714894],[5.873202411984612,60.20421218220958],[5.873773909201573,60.20481542169715],[5.8739079097336155,60.20495675849985],[5.87382561492218,60.205062571927925],[5.873745415858386,60.20510255648355],[5.873636117170785,60.20515697020842],[5.8736770956875946,60.20529266594182],[5.8737243058663795,60.205316005155076],[5.874039239657831,60.20547197472602],[5.8746364216823626,60.20564779720638],[5.875582635205154,60.205759985305136],[5.876618000700571,60.20569452680394],[5.876882072316717,60.20576372503845],[5.877195930574522,60.20587885227215],[5.877433066375525,60.20623492992246],[5.877966910861454,60.20650801488808],[5.878502105064795,60.20657459335181],[5.878861487651262,60.20659201443644],[5.879324018503984,60.20666584147836],[5.879547841787198,60.20677896667096],[5.879635454216776,60.206996609535565],[5.87989821078955,60.207272306859515],[5.8806217604477276,60.207828572742805],[5.881028698698291,60.20848516147061],[5.881247029012032,60.20922718192025],[5.881781831554731,60.209491276659165],[5.882318661032868,60.20953987532576],[5.883039620283286,60.20974556197764],[5.883686681462468,60.209967451231876],[5.884912377519358,60.210100289129976],[5.885170103056883,60.21012808890843],[5.885395675361086,60.210034546940726],[5.885770470177789,60.20966467694127],[5.885893681553799,60.20954298471907],[5.88590979357636,60.20945553434956],[5.88591343485973,60.209434729453356],[5.885931255765689,60.209337275581504],[5.885977399143006,60.209312547096864],[5.885995542584758,60.209302868922535],[5.886216961149772,60.20918454673965],[5.886349790767919,60.20911349757259],[5.886602944606755,60.20929913279055],[5.886813401260058,60.209294644581504],[5.887056707718675,60.209273995525045],[5.887923592174784,60.208889861303355],[5.888234483933656,60.208852202291226],[5.888267922767034,60.208850813272335],[5.888826125736299,60.20889309369873],[5.8891484911790934,60.209006609262445],[5.889455174666747,60.20911451910598],[5.88989668339796,60.2094124227798],[5.890396831397454,60.2096578116294],[5.890569484283416,60.20993139973121],[5.890494263389859,60.210154293645594],[5.88993864502343,60.21049167960682],[5.888193939158057,60.21075800055799],[5.88805146593647,60.21077976255676],[5.887725540064014,60.21097887305211],[5.887733528258122,60.2112755820254],[5.8881354642727395,60.21160852624714],[5.888814808603152,60.21186976670751],[5.889354955033517,60.21207744113797],[5.889811482102228,60.21221398192492],[5.890260281545036,60.2122424411057],[5.890701377950549,60.21235170158687],[5.890577959788374,60.212510527320084],[5.89047500474578,60.21264293492571],[5.890114948804956,60.212823149818924],[5.889659335728537,60.212866427297726],[5.889171957681516,60.21280574234011],[5.889124037526242,60.2127998026676],[5.888936961083726,60.21286736917863],[5.8889475881705255,60.213137148264295],[5.889062175663082,60.21343328667981],[5.889100544863006,60.2135324633218],[5.88916517603668,60.213699431678215],[5.889081102015407,60.21377404177008],[5.888987623827314,60.21385694753697],[5.888914285469951,60.213878890102386],[5.88870896731689,60.2139402226694],[5.8885769464246716,60.21418882545735],[5.888711005878619,60.21429978102518],[5.888774532297472,60.21429993319484],[5.88903868556365,60.21430033368471],[5.889126177343493,60.2143005187016],[5.889077381793405,60.21443405578714],[5.889027043473957,60.21444584275056],[5.888815556755012,60.21449545169793],[5.888763465878483,60.21450765943484],[5.8887128907556034,60.21465923839045],[5.888541441571569,60.214754005300804],[5.8883092510798525,60.215108095660156],[5.888295349931043,60.21582651008547],[5.888395821910251,60.21609844534338],[5.8886809667522,60.21635434099814],[5.8887454228632725,60.21641221598225],[5.88886308949529,60.21647856582281],[5.889294061189592,60.21672160388147],[5.889555016302627,60.21701531532251],[5.889520080771622,60.217194095755005],[5.889147807808142,60.21731128750544],[5.8887961616508955,60.21730799228725],[5.888516244639777,60.21730541623372],[5.888510269721392,60.21730599654919],[5.887987699278934,60.217355930853735],[5.887616808168499,60.21726625750522],[5.887163446690716,60.21690526081077],[5.8866358082113175,60.21694670478255],[5.88649753822689,60.216880642675115],[5.886321633542956,60.21683158453447],[5.885954716525836,60.21708343487612],[5.88576698171916,60.21734860157635],[5.885951733921282,60.21768539267431],[5.885662291295412,60.21771034759335],[5.885459963400227,60.21772778097688],[5.884686776145995,60.217502953252044],[5.884108614157188,60.21750744850517],[5.8837910423417,60.2176166676355],[5.883739560205939,60.2177772207124],[5.883560355817103,60.217952782473525],[5.883608599429954,60.21820546919397],[5.88409798563523,60.2183786464153],[5.884949300984661,60.218542464466836],[5.885455616975724,60.218536421556514],[5.886175085507257,60.21894875437093],[5.886257454328557,60.21903154950556],[5.886135741545254,60.2191724167621],[5.886269430220645,60.219283439070644],[5.886843772793065,60.21932385540438],[5.887171774544194,60.219302019852485],[5.887443647755941,60.21928406815133],[5.887535229907743,60.21907947784764],[5.887611584573044,60.21903641603665],[5.8878784920416205,60.219078399179686],[5.888328424978692,60.219286873985254],[5.888791880820928,60.21935159461759],[5.889122844054282,60.21951784685686],[5.889636329190531,60.21977581396078],[5.889922345508872,60.220065746090725],[5.8900709189281875,60.22021647442313],[5.890181605342733,60.22032861048164],[5.890261582833697,60.22040961018068],[5.890293702541436,60.22044219970124],[5.890308209956587,60.22044618649872],[5.890313614986927,60.22044764521644],[5.890312688127786,60.220449659641815],[5.8902895230337124,60.22049739987576],[5.890223441758937,60.22063425966125],[5.8903238939068245,60.2207173998992],[5.890045250805741,60.2209893822491],[5.889912617117048,60.22105828184422],[5.889818983252771,60.221280625441246],[5.8901289837527715,60.221440723141384],[5.890507039940025,60.22153549204393],[5.891117135889069,60.22168852855758],[5.891533331854206,60.22186907845828],[5.8924231106067095,60.22203414909467],[5.894693020661364,60.22245523037007],[5.895228716663814,60.2225216711878],[5.895727526969511,60.222785011159296],[5.896939903760657,60.22390953845654],[5.896954347362035,60.22393195610206],[5.8969870695008,60.223982569447564],[5.896940862321067,60.22408935681216],[5.896614176768219,60.22429738810655],[5.895892217816669,60.224289462041476],[5.895724932486527,60.22433934143118],[5.89512947540402,60.22433447031766],[5.894952488858819,60.2242942982822],[5.894809001773423,60.22409341053714],[5.894463617349045,60.223734857608584],[5.893952775001171,60.22359702238105],[5.893322731801034,60.22353787446272],[5.892932193794621,60.22350126516243],[5.892704299186213,60.223621684730915],[5.8918353386871605,60.223637270226426],[5.891167344353309,60.22401705125507],[5.890705765108164,60.22431161804454],[5.8905781173046154,60.22451525010944],[5.890793715445257,60.22471806304096],[5.891156010249533,60.22489723079613],[5.8914283829377645,60.2250744203484],[5.892464508358602,60.22538626207401],[5.893332548645566,60.22556834391464],[5.894810805295984,60.22579165095025],[5.896436499831933,60.22579378521564],[5.896802027746742,60.22574840109012],[5.897070677936381,60.22577267949783],[5.897593845203639,60.225915329390276],[5.897828003123994,60.22597915327098],[5.898234228308277,60.22626716447375],[5.898512544310962,60.22638166780189],[5.898867141801144,60.226452735338704],[5.898955338342033,60.22647456011496],[5.8995908433532644,60.22663138705608],[5.899947090922147,60.22687337002621],[5.89999998250306,60.22694155380918],[5.9003496872844385,60.22739482617228],[5.901352810817062,60.2278675211217],[5.902887006231203,60.228649303083024],[5.902924118064923,60.22882990217915],[5.902795767055981,60.22923132019935],[5.903107123837759,60.22957104462196],[5.904181851088158,60.23024305343043],[5.904405918748356,60.23035614199696],[5.904641460754485,60.23054132679998],[5.9049860002553265,60.23072012655873],[5.905255386353831,60.23112174051377],[5.905315774934049,60.23143760724424],[5.905627991040355,60.231925954744206],[5.905630620134259,60.231930203166684],[5.905650347972459,60.23254184925074],[5.905658325450173,60.23278450740294],[5.906014682427522,60.23341281714376],[5.90651775342357,60.23401755358003],[5.906524264266282,60.234323370531136],[5.906524307915361,60.23433232037849],[5.9064119941991065,60.23446436585864],[5.906279698086409,60.23461979257503],[5.906239586462134,60.234667087229205],[5.906206564008025,60.234696164677686],[5.90606216977238,60.234824637823316],[5.9059591090043355,60.23511737146308],[5.90590629463752,60.23526735483206],[5.905889375161448,60.235314896346416],[5.905930871993138,60.235450610642545],[5.906371977211281,60.23594614300287],[5.906654612498273,60.23601564609384],[5.906871814291664,60.23601167405693],[5.907047319849366,60.23625840488526],[5.907239693316364,60.23632573744249],[5.9073371583991765,60.236415974396756],[5.907870768812853,60.236915540990225],[5.9080059956393285,60.23720630026468],[5.908897719461934,60.23752355650217],[5.909025470671861,60.23761470885174],[5.909131849607984,60.237717308079084],[5.90916598050759,60.23774542136297],[5.909419810321405,60.238221950463306],[5.909442390809219,60.23826408688237],[5.909603282169313,60.238405785766986],[5.90989294750172,60.23866102805566],[5.910110943890633,60.23880522386408],[5.9106119202831895,60.23913623835392],[5.910808167668012,60.23926591735862],[5.910879546043844,60.23931295933536],[5.911155217333337,60.23942444470084],[5.911279939495463,60.239475079393884],[5.9113697974918376,60.23959912836499],[5.9114720600350585,60.23973993912228],[5.911802243839374,60.23995107087421],[5.911929397617244,60.24003205676481],[5.912548932662507,60.24042745866862],[5.9125970928063145,60.2404580756572],[5.91271896833247,60.24058596043192],[5.913001977525334,60.24088275707935],[5.913140779119309,60.241028799586076],[5.91394571105689,60.24187348442183],[5.914711126900813,60.242169141717255],[5.914712964830504,60.24216972042321],[5.9147163733887345,60.24217248606683],[5.915063082278403,60.24248343333096],[5.915381753286272,60.242553684120935],[5.9159358823176005,60.242620481887236],[5.916522106243673,60.2428314645584],[5.916740285401008,60.24290878495306],[5.917010179466168,60.243112758327385],[5.917648389427157,60.24324436183048],[5.917784400934385,60.243337338660446],[5.91787142778065,60.243564118573175],[5.918182871640147,60.24371501607679],[5.91871771820259,60.243790411401484],[5.919178490087574,60.24407975299363],[5.919904023795551,60.244437871874986],[5.919990657606262,60.24486217240107],[5.919439446797985,60.24495735852706],[5.919524977294289,60.24520192683941],[5.919528867018572,60.24520427366211]],[[5.871208252112735,60.21585567126449],[5.872297004263882,60.21598914824621],[5.8726728324864705,60.215899000244],[5.872740601177783,60.21588273480279],[5.872882159801093,60.215724366241034],[5.872848364627227,60.21556820153119],[5.872794447769543,60.21531791493529],[5.87285211985345,60.21531369201271],[5.873067369646115,60.21529744612124],[5.8734706481528445,60.21523504829709],[5.873826619884459,60.21509968769763],[5.873835405912506,60.21508972322698],[5.874021854812293,60.214881959650626],[5.874149844801462,60.21473891662781],[5.874192766250141,60.21466805704332],[5.8742684256706665,60.21427031970692],[5.874337350114513,60.21390763293613],[5.874353637212386,60.213889693482194],[5.874458542334963,60.213775867176835],[5.8744445463286015,60.21370783743685],[5.8744385275139095,60.21367940341548],[5.8743843232338,60.213414547568526],[5.874324215614175,60.2133555197285],[5.874263237942442,60.213295708487784],[5.873971514477222,60.21300931388184],[5.873703662471501,60.21278747614408],[5.873435139931931,60.21276315290623],[5.8731545150769255,60.212675720401336],[5.872995592299785,60.212652402894626],[5.872353154267937,60.21255793967258],[5.871813651089127,60.21253622908389],[5.871502183644008,60.212582849378094],[5.870906672515148,60.21257758305281],[5.870369928885203,60.212717741209325],[5.870100309664174,60.21289107832051],[5.869730513803325,60.21298118439131],[5.868519129736752,60.213186394994345],[5.868107301100547,60.21333828874075],[5.867793402864054,60.213411664338366],[5.867569442412139,60.213676013023886],[5.867613202976447,60.21378488211268],[5.868008860431419,60.213991927457236],[5.868147908907674,60.214237734148234],[5.867925684456271,60.214484219177734],[5.868057026585181,60.214622123497634],[5.868426115284208,60.21472962555813],[5.868738414693767,60.21486282811113],[5.868956437554249,60.21522735711263],[5.869130827649372,60.21567173236106],[5.869414740502389,60.215723521574546],[5.870675366351432,60.21576220701572],[5.871208252112735,60.21585567126449]],[[5.879916895244275,60.21505453078501],[5.880059212235912,60.21502887951556],[5.880069122679135,60.21502721680041],[5.880137293783351,60.215014681071686],[5.880143881668068,60.21497428823506],[5.8801808621555365,60.214746214687196],[5.8802325337258186,60.214585675652366],[5.880463743018276,60.214429358597236],[5.880548679060034,60.21429661126529],[5.880876410419492,60.214268448686546],[5.880952608353476,60.21422528967982],[5.880556186960516,60.21402718158208],[5.8805465837514586,60.21395249873774],[5.8805117782061895,60.21367850903957],[5.880504639740221,60.21362162017759],[5.880325075733179,60.21341965568162],[5.879784275163381,60.213218313583695],[5.878847460583754,60.21319628965982],[5.87830620654776,60.21319246978375],[5.87799406894222,60.213436709738595],[5.8778772710608385,60.21342508594972],[5.877761413746387,60.21341334652541],[5.877845238773736,60.213232714984294],[5.877852156847114,60.2132177405298],[5.87766678722811,60.21307872207118],[5.8769890855748335,60.212990784373595],[5.876408258180089,60.213210602709175],[5.876000831354387,60.21350643164296],[5.875915983087899,60.213639453992904],[5.875686162314159,60.21377778493941],[5.875691255124702,60.2139126171228],[5.875223887501042,60.21426999006233],[5.875414483608947,60.214355330045095],[5.875867467377429,60.21433912091098],[5.876401933586049,60.21422589475517],[5.876948481803367,60.21417586356389],[5.877258173948571,60.21433597622272],[5.877523552456539,60.21458492688424],[5.878609883304808,60.21474511608349],[5.87884076547505,60.21478651981338],[5.879416369367718,60.21480916599123],[5.879916895244275,60.21505453078501]],[[5.86975696551614,60.206835532082316],[5.869523441808274,60.207009834827616],[5.869490065358605,60.207112083296664],[5.869447230335187,60.207241601457035],[5.8694455821574145,60.207284415793474],[5.869433670718767,60.20757378728909],[5.869659429796491,60.20766889946371],[5.869970263893797,60.207690475800234],[5.870251375796955,60.207709897963056],[5.870699947106204,60.20754970658513],[5.871188909837406,60.207534388436336],[5.871382654834029,60.20739509939661],[5.87143150906255,60.207261570272465],[5.871552200997579,60.20712959254018],[5.871560983905499,60.207039916430084],[5.871018808722729,60.20685632997976],[5.870543901010014,60.20680014089122],[5.870072557546031,60.20674419741238],[5.86975696551614,60.206835532082316]],[[5.865491775249501,60.21390212281859],[5.865724141986112,60.21390189965942],[5.865754907108571,60.213840772041166],[5.8657686426146824,60.21381316668105],[5.865901650590253,60.21374431661143],[5.8665716549648,60.21372431986938],[5.866758730194904,60.21365696353152],[5.86679806792175,60.21343312010519],[5.866932693188378,60.21315768979115],[5.86685550403177,60.21302101316709],[5.866135005259759,60.21300415552961],[5.865403835649248,60.21309464375105],[5.864989524058438,60.213273469013494],[5.864464345762417,60.21328806070219],[5.864447115711886,60.21346734717261],[5.865090983823929,60.21353664315769],[5.86535511573775,60.21360577671967],[5.865494915063688,60.213653894563485],[5.865667416485245,60.213738897373034],[5.865538515327466,60.21376266316466],[5.865507614253877,60.21378735938943],[5.865362898994835,60.213902482564585],[5.865491775249501,60.21390212281859]],[[5.870217328126899,60.21639830169452],[5.869592421763563,60.216509295490205],[5.869542264020735,60.216660990804634],[5.869896484691914,60.216732208745704],[5.869905911888498,60.216822335687226],[5.86971723863154,60.216907661506944],[5.869855448329979,60.21697382910971],[5.871159529946348,60.21693282913872],[5.871253991344806,60.21689003839717],[5.8710343359406165,60.21673209212987],[5.871033313676131,60.21655235310499],[5.870757071436214,60.21642003257632],[5.870217328126899,60.21639830169452]],[[5.886828370322834,60.21434551745584],[5.88673248915451,60.21459472480043],[5.886916306010051,60.214751785905854],[5.88709155839934,60.214998537208025],[5.887096826664623,60.215133559658135],[5.887449522885857,60.215222607954956],[5.887543934018386,60.21517989362029],[5.887593638767494,60.215037291927125],[5.887548670819844,60.21474877571697],[5.887279184962405,60.21454475156989],[5.887265991358202,60.21430172534355],[5.887188485949997,60.21416522364557],[5.88699385525069,60.214124719413824],[5.886828370322834,60.21434551745584]],[[5.880157617168729,60.21213981373893],[5.8807857643588894,60.21218155286337],[5.880920467173524,60.212094822265435],[5.880835470892798,60.21185024993742],[5.880335009588891,60.21160480094346],[5.879832267334627,60.21157509753816],[5.879834894860005,60.211736960670194],[5.87996878597094,60.21184773457323],[5.879834259949991,60.211934476516255],[5.879877181216801,60.21205231896211],[5.880157617168729,60.21213981373893]],[[5.871942093346718,60.21213492478472],[5.8717191124974955,60.212201513130914],[5.871760242521053,60.21233731053188],[5.871898462877087,60.212403386991575],[5.872486820561032,60.21245361173655],[5.873010936152067,60.2124984727207],[5.8732058604502155,60.21251516010636],[5.873302947716347,60.21244543807148],[5.873161224566249,60.21222656562944],[5.873039423386237,60.21221142694899],[5.872982748870231,60.212204331535496],[5.872723119870577,60.21231356673472],[5.872719465938847,60.21231493997374],[5.872670282869443,60.2122908312822],[5.87239157332191,60.21215445557452],[5.871942093346718,60.21213492478472]],[[5.869905558856685,60.21084047863517],[5.869971781766894,60.210830343750224],[5.870058373603757,60.21049093570142],[5.869974303617077,60.2104260847778],[5.869240778969302,60.21035483465183],[5.869160014339848,60.210442767946425],[5.8691944852417,60.21065022484082],[5.869568552695925,60.210892731921454],[5.869905558856685,60.21084047863517]],[[5.868926794727036,60.21080570790904],[5.868478995698491,60.21057940912141],[5.868525271999146,60.21047263343351],[5.868263600109295,60.210376653629346],[5.867813994956514,60.21035700834736],[5.867662992233868,60.21042533315474],[5.867801171312147,60.21049150219207],[5.867979633591421,60.210513743012484],[5.868083501522489,60.21056108113772],[5.867978902800836,60.21071134584862],[5.8686677411620405,60.21087141362874],[5.868926794727036,60.21080570790904]],[[5.870243610912092,60.207979312770725],[5.870208559359072,60.20815817453763],[5.87060576365561,60.208158631249155],[5.870882853188475,60.208093270973244],[5.870751547504442,60.20795528117009],[5.8704830422767635,60.20793104150759],[5.870243610912092,60.207979312770725]],[[5.872062622072746,60.207370801683425],[5.871995356721804,60.20743653651845],[5.872051554649721,60.20748743202736],[5.872154330932464,60.207539300485074],[5.872254647088679,60.20752800608585],[5.872283374102274,60.20741639704625],[5.872217922545286,60.207370010912065],[5.872062622072746,60.207370801683425]],[[5.876474577610449,60.207200805985906],[5.876616981159791,60.20722207081273],[5.87669753924423,60.207134119983586],[5.876526276834457,60.207040179936925],[5.876430794093275,60.20709193940735],[5.876474577610449,60.207200805985906]],[[5.872256781316127,60.21148635158868],[5.87208077476708,60.211437174566974],[5.871986508967446,60.21147997862808],[5.871943562763639,60.211550926124374],[5.8720859816427,60.21157219620506],[5.872256781316127,60.21148635158868]]]}}]}