{"type":"FeatureCollection","features":[{"type":"Feature","id":223637,"geometry":{"type":"Polygon","coordinates":[[[5.9195288670185722,60.245204273662111],[5.9189704898794968,60.245437773154968],[5.918372181632785,60.245687945731063],[5.9183063685812396,60.245667771479319],[5.9177116155331291,60.245524892974991],[5.9173226028237211,60.245423227287255],[5.916641653700351,60.245107933255063],[5.9161003107276553,60.244906647000263],[5.9158302618384857,60.244875721954074],[5.9151030902284569,60.244812617929476],[5.9147042039764646,60.244568650680357],[5.9138039289311264,60.244341045461127],[5.9131723036907724,60.244137671292286],[5.9109671407788955,60.243178869223854],[5.9104184408802194,60.242855137054498],[5.9098884274790828,60.24254263338868],[5.909744826226933,60.242341580634303],[5.9095161214456269,60.242273371300357],[5.9088943126977691,60.24158490253334],[5.9087958691569336,60.241286021673595],[5.908622021647906,60.241021515678632],[5.9084466598982717,60.24077479838968],[5.9077660184513139,60.240327618506996],[5.9073972024670125,60.24021122797582],[5.9072315885921434,60.240054559794558],[5.9067370821363205,60.239737534151814],[5.9065464607481788,60.239652157943858],[5.9063650111921051,60.23946827679876],[5.9061004021862491,60.239399206468079],[5.905877294560713,60.239465850072968],[5.90561406557004,60.239384041196288],[5.9055963532439764,60.239378479540882],[5.9046467889590994,60.239293438214197],[5.904425893366569,60.23933330132575],[5.9040283247003051,60.239332849453803],[5.9037595324870491,60.239308671285741],[5.9029760131566515,60.23899379746333],[5.9027162964722546,60.238682317048969],[5.9026853519281257,60.238647373028222],[5.9025752231120894,60.238454226293946],[5.902092586509343,60.238209394820949],[5.9020743514466316,60.238080889637082],[5.9019554584464711,60.237936660592361],[5.9020487364799665,60.237714194157725],[5.9018085561124796,60.237196385051092],[5.9017190080496826,60.236996616660292],[5.9017214562741778,60.236509405863259],[5.9017231730077953,60.236187978458261],[5.9015514450291411,60.235990933609664],[5.9013156448152788,60.235720143212859],[5.9010569930594752,60.235588302088871],[5.9010986842551665,60.235337779081092],[5.9007582435523052,60.234939466930015],[5.9002361336142428,60.234329049643193],[5.9002494213447561,60.233808336290977],[5.9000000473728056,60.23338794052362],[5.8999844501968051,60.233361828782975],[5.8994741665205925,60.233026415995511],[5.8993475473414447,60.232646046833459],[5.8993575412003709,60.232349682083949],[5.8991673933460369,60.231878071115091],[5.8992517961025461,60.231745185327384],[5.8991787555583874,60.231563816776777],[5.8989881759904197,60.231478519824648],[5.8986250312021005,60.231496965892958],[5.8977186784928941,60.23171832425696],[5.8956428926314741,60.231696831647668],[5.8953759215828789,60.231654684381049],[5.8951517246101606,60.23154147997306],[5.8948489885493442,60.231112046813443],[5.8946086271313902,60.230980642255084],[5.8942599437389891,60.230846712719689],[5.8938861685967021,60.230595277305255],[5.8931814243038589,60.230596758011501],[5.8927649086648213,60.230416286907762],[5.8924979521864094,60.230374134131949],[5.8915406734459745,60.230369605980755],[5.8907363555501728,60.230278868323026],[5.8893820656132529,60.229698994091841],[5.8884341749823852,60.229407159747382],[5.8883412423225474,60.229243202707593],[5.8879403661544414,60.229090096075431],[5.8868604273057858,60.22904676298873],[5.8864948049831654,60.228903413242328],[5.8861889857767853,60.228887203959232],[5.8854554360538867,60.228844351064218],[5.8854166314589076,60.228842115203271],[5.8853818324438798,60.228826871694046],[5.8850890825599835,60.228697150624093],[5.8850522396723743,60.228680771320121],[5.8850316855039502,60.228660730410361],[5.884920072962414,60.228551870001539],[5.8845199220522142,60.228389764534668],[5.8838830547405383,60.228437738481979],[5.8829747358311106,60.22829943792118],[5.8825274830755925,60.228252995948168],[5.8820887687127588,60.228117040044779],[5.881044994811746,60.228074445918317],[5.8805497603281562,60.227963849283228],[5.8799985771086529,60.227870068966922],[5.8787977449898925,60.227958731827513],[5.875622446708415,60.227910759939391],[5.8751403732022496,60.22766576161159],[5.8747227825741346,60.227305484710641],[5.8744686868356126,60.227128801461816],[5.8744634236754205,60.226993956866984],[5.8742108954403234,60.226864196477109],[5.8741878099673235,60.226852563683373],[5.8742096027342567,60.226846121980543],[5.8744108889514113,60.22678597323214],[5.8744573271478968,60.226679296486907],[5.8744310585823216,60.226648554385207],[5.8742460480325507,60.226431563910793],[5.8741948675523865,60.22631079657895],[5.8741575751040465,60.226222804792016],[5.8739265951405981,60.226181479832874],[5.8734243937757018,60.225953966107618],[5.872576275692607,60.225754240949925],[5.8719892405326881,60.225659563973998],[5.8714356304188211,60.225272033691766],[5.8711255933774806,60.225055220447672],[5.871104439936409,60.225027634035342],[5.8709004849395665,60.22476232730267],[5.8708501386102068,60.224711205777062],[5.8703733401233471,60.224228681091581],[5.8702798769034761,60.224103260439179],[5.8701582198601407,60.223939732742593],[5.8700531522283379,60.223798684885416],[5.8700512952282091,60.223745053094902],[5.8700184497449239,60.222836568065397],[5.8699939118812061,60.222800974142267],[5.8698681272607143,60.22262043984243],[5.8698279180431454,60.222562339147721],[5.8697182578364906,60.222507010614791],[5.8693795772085782,60.222336103514138],[5.8691146878845792,60.222275876390817],[5.8683986125654846,60.22227037381343],[5.8679775024983227,60.222267084375105],[5.8675331232471244,60.222382379689122],[5.8671700701516913,60.222400740998879],[5.8669381545161983,60.222179577354126],[5.8668409749758874,60.222128998692021],[5.8667575588726404,60.222085701754601],[5.8665940717434379,60.222000785933368],[5.86541051190133,60.221909943016016],[5.8650105165977093,60.221936307451791],[5.8642939634993105,60.221685826432292],[5.8639714232704137,60.221660176225569],[5.8637054060682008,60.2217976048032],[5.8635122438536005,60.221927891266702],[5.8632076607901276,60.222091380946836],[5.8630231555803274,60.222131890591946],[5.8626660638460724,60.222087569903024],[5.8622558524557355,60.221901733148975],[5.8621641834824603,60.221860028854294],[5.8621179983379985,60.221816151231479],[5.8617666454951864,60.221482114308884],[5.8606758157976371,60.221366487521017],[5.8603566941483276,60.221116386414231],[5.8598742765853959,60.22087138863931],[5.8594604934988945,60.220852402318037],[5.8591584714289544,60.220894773755298],[5.8590211880670768,60.22091397572666],[5.8588315781523423,60.22100826113644],[5.8584660140302365,60.221430955481743],[5.8583253095363661,60.22176904410037],[5.8578789572603682,60.221902246490629],[5.8572464140823923,60.221905288539517],[5.8567443307204226,60.222055130415391],[5.8563471394619269,60.222054640568381],[5.8562586410621238,60.222034662199547],[5.8561723951363511,60.222033187117937],[5.8559042436293982,60.2219633059564],[5.8556940091732494,60.221893563351856],[5.8555877074870031,60.221874877700614],[5.8555377774599435,60.221828839109754],[5.8550897988289874,60.221791194559508],[5.8547689699841321,60.221558944657026],[5.8545375022115795,60.221337785986663],[5.8542832064365591,60.221161042580455],[5.8539132330054651,60.221119958930217],[5.8538721870739625,60.221115388296901],[5.8536634974887285,60.22107186881648],[5.8533197511983053,60.221008565981371],[5.8532869156318981,60.221002577629847],[5.8531041066014486,60.220884396071817],[5.8530492513048387,60.220864314092076],[5.8530131692722431,60.220843368216215],[5.852996874414484,60.220795961389399],[5.8529466774723531,60.220651299794987],[5.8529301011114878,60.220603602244772],[5.8529281886441495,60.220598769582665],[5.8529618700981434,60.220564236799063],[5.8531086594807613,60.220414200937292],[5.8531098121849743,60.220402983738673],[5.8531471308121477,60.220010804087984],[5.8527482536803292,60.219651019747452],[5.8525242898345153,60.219537748068909],[5.8523764964003941,60.219435285373585],[5.8522037902278523,60.219315454658634],[5.8522024107160027,60.219314545326469],[5.8515630390316868,60.219022628317006],[5.8513662975908574,60.218932757487551],[5.8512885301591773,60.218897253264892],[5.8512682711853046,60.218887891077259],[5.8512257069624374,60.218858992326531],[5.8508785476878939,60.218622368696515],[5.8507764037438665,60.218552722783741],[5.850776921085342,60.21851208821645],[5.8507777431431105,60.218366273697818],[5.8507780343879388,60.218321917869822],[5.8507791973888432,60.218148380721466],[5.8506410906713411,60.218030230624812],[5.8505955413024155,60.217991272674041],[5.8504651217221566,60.217717753156101],[5.8504520578402399,60.217690544274056],[5.8503700867090265,60.217518726529924],[5.8504382243282667,60.217388710414262],[5.8505469578405336,60.217181441937974],[5.8503487999587067,60.216985455861924],[5.8501840705434658,60.216822432931806],[5.8500001079330701,60.216773124503149],[5.8499762814397194,60.216766767549451],[5.8497791447365364,60.216713921465924],[5.8496294369355297,60.216682992198358],[5.8493363403939842,60.216622566834239],[5.8487048149153251,60.216616505335274],[5.8482500281112051,60.216839285075281],[5.8479761696606447,60.216868766704195],[5.8476184524221813,60.216799774669191],[5.8473911739457796,60.216755944430254],[5.8467246049260009,60.215985265206832],[5.8466744743804551,60.215901881608431],[5.8466019422063056,60.215781871989464],[5.8465377843749167,60.21567536928633],[5.8458162397129732,60.215289761486687],[5.8452887576518773,60.21495371608129],[5.8452432942017341,60.214862793478254],[5.8450108606622599,60.214839296522939],[5.8445175313588074,60.21471069582266],[5.8443776073395499,60.214662455278138],[5.8443383671886888,60.214508699550251],[5.843935953558252,60.214373319097795],[5.8436228349934281,60.214437836890369],[5.8430272560637695,60.214432621275748],[5.8429334030226725,60.214374932919952],[5.8429229087764485,60.21436832769195],[5.8429146520434845,60.214361516702724],[5.8426547139617337,60.214143862461626],[5.8426461758117147,60.214136760719711],[5.8425576691248322,60.214062000879032],[5.8416268538160585,60.214012652877997],[5.841567216561919,60.214007054644014],[5.8415257982784325,60.213988987084761],[5.8414712629064089,60.213981394134905],[5.8412234872126358,60.213964684921478],[5.8409720205265279,60.213868093291133],[5.8407299815712657,60.213734107500137],[5.8404530903166183,60.213493485892783],[5.8400995661812534,60.213188237661697],[5.8397783465175408,60.212894727778163],[5.8397123413418042,60.212709641715115],[5.8396165081106908,60.212548598256767],[5.8395976975994159,60.212484383564494],[5.8396110637493432,60.212397464718904],[5.8396835291864448,60.212209549300702],[5.8398040329308722,60.211983856262172],[5.8399005622219446,60.211929300719078],[5.8399544675906068,60.21191199605115],[5.8405712260668396,60.211755837557945],[5.8409007783984404,60.211655416492746],[5.8409606300262276,60.211646027060837],[5.8412579256247428,60.211629310576811],[5.8414848062727778,60.211576871013492],[5.8415818007336107,60.211537440284047],[5.8415978710643799,60.211509999118931],[5.8416106969185408,60.211357155689278],[5.84189011239694,60.211152739021252],[5.84199549727954,60.211003357535148],[5.842057694000899,60.210946862223977],[5.8420662996270849,60.210917545612979],[5.8420704619837878,60.210823930622858],[5.8420438269309454,60.210797221678199],[5.8419649084344325,60.210755574989911],[5.8418595968220037,60.210724472655713],[5.8417869108752578,60.210647740448174],[5.841684422026785,60.210620811210433],[5.8416492379466503,60.210598025915765],[5.841643098619139,60.210570122920011],[5.8416526984946948,60.210541146693551],[5.8417157974666409,60.210535056052564],[5.8423512800293445,60.210673929340622],[5.8425462632560148,60.210692927189903],[5.8429147189935984,60.210745421690142],[5.8429956083740455,60.210819470563827],[5.8436408157084792,60.210870803442077],[5.8444841225143644,60.21111550640596],[5.8449473131441652,60.211180553879267],[5.8452929150408854,60.211341532892448],[5.8458481260207042,60.211390657674521],[5.8460170364912036,60.211322788467818],[5.8461072510468695,60.211136197002141],[5.846120164360098,60.21100170726438],[5.8458447594487586,60.210671725748],[5.8462052270750231,60.210491560456127],[5.8465278180110385,60.210517263736762],[5.8467996739663883,60.21069443623319],[5.8469728487919159,60.210959097227502],[5.847561103940099,60.211413515465622],[5.8485840129901518,60.211860121399489],[5.8486350409749042,60.211876957267144],[5.849052740804999,60.212013477563403],[5.8493540126539818,60.212111891130135],[5.8495095600758038,60.21218660984875],[5.8496302575540486,60.212244443416992],[5.8500000478075416,60.212348525485446],[5.8514764075847081,60.212764557030397],[5.8524553232924603,60.213102325649814],[5.8535937842134338,60.213282081339436],[5.8544956006023687,60.213483152341674],[5.8551235266209929,60.2135250898367],[5.8554537749638103,60.21346670768223],[5.855840053599767,60.213398301418145],[5.8562047234488048,60.213173303095125],[5.8563033905980832,60.213085806784541],[5.8564557595300863,60.21297393564992],[5.8565001007750954,60.212941499200788],[5.8565170167312148,60.212929118305119],[5.8565345823661206,60.212878191109503],[5.8565670297951549,60.212786543651454],[5.8565224223627661,60.212727408571766],[5.8564707582459317,60.21265847401078],[5.8564455000502846,60.212446950674547],[5.856440615366572,60.212406121736905],[5.8572013091143065,60.211602935481849],[5.8573931621551152,60.211400176575268],[5.8574669769263137,60.211322249702718],[5.8576058116788685,60.211175726190334],[5.8578391334740116,60.21081289775853],[5.8579241638227835,60.209736622770563],[5.8580132257714297,60.209628936738348],[5.8583100447452283,60.209270160069792],[5.8583325375100328,60.209243073572338],[5.8587058136085046,60.208550964797595],[5.8598725112826306,60.20805742305884],[5.8598794505014737,60.207876698222762],[5.8598844255733624,60.207743104377776],[5.8599004958198968,60.20773436995929],[5.8603226862234461,60.207502064751871],[5.8603768886423113,60.207314682738428],[5.8605176310970215,60.207165127049208],[5.8603251297590582,60.207019528286331],[5.8602480212100829,60.206961028117824],[5.8602440871120978,60.206954337936658],[5.8601545550225653,60.206806133291806],[5.860467816341699,60.206552973240534],[5.8603304434517423,60.206289195495899],[5.8606102114765166,60.20619683926892],[5.8607661769719703,60.206058373338436],[5.8608073234479114,60.206021737529433],[5.8609651100029438,60.205881951947525],[5.8605715880369917,60.205656771116161],[5.8600276253626156,60.205302468669828],[5.859477867588029,60.205010934608545],[5.8585856417620787,60.204711049450395],[5.8582665333296742,60.204649826114888],[5.858035799819735,60.204523436857954],[5.8580092071076653,60.204508845134697],[5.8580284363095592,60.20450114398308],[5.858039902584288,60.204496518338622],[5.8581782597951833,60.204440882743775],[5.8582060979271269,60.204443269628477],[5.85880531325214,60.204491787615936],[5.8598508719903721,60.204696224284525],[5.8602017628761445,60.204803394952293],[5.8607883647541481,60.204898203879097],[5.8610569895203701,60.204922563595325],[5.8613716642438716,60.20502875073349],[5.8618227790428401,60.205030451185344],[5.8621539616363663,60.20496642803014],[5.8621818695226517,60.204943965147422],[5.8625177885621369,60.204672041229003],[5.862682291214429,60.204538685769954],[5.8627231485034192,60.204493353268099],[5.8628166024588531,60.204389314607425],[5.8630460052662725,60.204133939716371],[5.8629618405012671,60.20350295428598],[5.8629332641793228,60.203464998911265],[5.8628657456558102,60.203374901787086],[5.8628194523047421,60.203165083540647],[5.8627972850326779,60.203064128663918],[5.8627908385836758,60.203034669747623],[5.8627902341220803,60.203031645308307],[5.8628150985623062,60.20302261789606],[5.8631452519678966,60.202905199357097],[5.8631221759133645,60.202872235362477],[5.8630500408249144,60.202768170649669],[5.8630477851957776,60.202745781186934],[5.8630460261400614,60.202729391108662],[5.8630123855286964,60.20240775182188],[5.8632824264172214,60.202225604373517],[5.8633746320455238,60.202138289157226],[5.8634213166146356,60.202094174876201],[5.8634971331049028,60.202067900390524],[5.8637386930170239,60.201984724710954],[5.8641881796636524,60.202004381267955],[5.8651274156650182,60.20218828743149],[5.8658161226913119,60.202159663400984],[5.866036423036797,60.202119924378323],[5.8660925241110702,60.202158796430922],[5.8662749808718191,60.20228516189718],[5.866327839423028,60.202322001100143],[5.8663581911062161,60.202343268831278],[5.866624883182566,60.202385468629181],[5.8668775596861149,60.202322851893996],[5.8672535512921193,60.202229664984728],[5.8674096023975784,60.20210755758324],[5.8674158520425266,60.202102749728581],[5.867460001207351,60.202068309242712],[5.8675656523117894,60.201985449971616],[5.8678449106040409,60.201820834945366],[5.868136400077252,60.201648844497072],[5.8682542672761633,60.201579395373017],[5.8683442792330718,60.201581488019386],[5.8685605225535156,60.201586651544879],[5.8687416375782124,60.201647849169888],[5.868875167269775,60.201692909235874],[5.8691455357127751,60.201699299124215],[5.8691927637359065,60.201627294664249],[5.8692427618623437,60.201551234837233],[5.8695466460775352,60.201088729470008],[5.8696490562418075,60.201085446079368],[5.8701803487756541,60.201067742812391],[5.8703733367358835,60.201010737118438],[5.8709977528325572,60.200826515544811],[5.8710041641399577,60.200826960585317],[5.8716254651858772,60.200868369489378],[5.8721004759201758,60.200963427323082],[5.872387181116892,60.201021012839099],[5.8728049534318654,60.201183672930988],[5.8732458649856332,60.201292898494209],[5.8736076079077346,60.201472182679574],[5.8736100597884624,60.201900371925134],[5.8736103488978033,60.201946664325028],[5.8736126460492999,60.202370866347387],[5.8736991761510957,60.202597387470398],[5.8734325927222253,60.20293270942264],[5.8733324043572495,60.203226888897824],[5.8726995197798173,60.203427616577123],[5.8727089790142504,60.203517654704989],[5.8732933225476174,60.20382797714894],[5.8732024119846118,60.204212182209581],[5.8737739092015726,60.204815421697148],[5.8739079097336155,60.204956758499847],[5.8738256149221799,60.205062571927925],[5.8737454158583864,60.205102556483553],[5.8736361171707854,60.205156970208421],[5.8736770956875946,60.205292665941819],[5.8737243058663795,60.205316005155076],[5.8740392396578311,60.205471974726017],[5.8746364216823626,60.205647797206382],[5.8755826352051539,60.205759985305136],[5.8766180007005708,60.205694526803939],[5.8768820723167172,60.205763725038452],[5.8771959305745218,60.20587885227215],[5.8774330663755254,60.206234929922459],[5.8779669108614536,60.20650801488808],[5.8785021050647952,60.20657459335181],[5.8788614876512622,60.206592014436438],[5.8793240185039837,60.206665841478362],[5.8795478417871978,60.20677896667096],[5.8796354542167757,60.206996609535565],[5.8798982107895501,60.207272306859515],[5.8806217604477276,60.207828572742805],[5.8810286986982909,60.208485161470612],[5.881247029012032,60.209227181920248],[5.881781831554731,60.209491276659165],[5.8823186610328682,60.20953987532576],[5.8830396202832862,60.209745561977641],[5.8836866814624678,60.209967451231876],[5.8849123775193579,60.210100289129976],[5.8851701030568826,60.210128088908426],[5.8853956753610861,60.210034546940726],[5.8857704701777891,60.209664676941273],[5.8858936815537994,60.209542984719072],[5.88590979357636,60.209455534349559],[5.88591343485973,60.209434729453356],[5.8859312557656889,60.209337275581504],[5.8859773991430062,60.209312547096864],[5.8859955425847579,60.209302868922535],[5.8862169611497723,60.20918454673965],[5.8863497907679188,60.209113497572588],[5.8866029446067554,60.209299132790548],[5.8868134012600581,60.209294644581504],[5.8870567077186751,60.209273995525045],[5.8879235921747837,60.208889861303355],[5.8882344839336556,60.208852202291226],[5.8882679227670343,60.208850813272335],[5.8888261257362986,60.208893093698727],[5.8891484911790934,60.209006609262445],[5.8894551746667467,60.209114519105981],[5.8898966833979598,60.209412422779799],[5.890396831397454,60.209657811629398],[5.8905694842834162,60.209931399731211],[5.8904942633898587,60.210154293645594],[5.8899386450234301,60.210491679606818],[5.8881939391580573,60.210758000557988],[5.8880514659364698,60.210779762556761],[5.8877255400640136,60.210978873052113],[5.8877335282581216,60.211275582025401],[5.8881354642727395,60.21160852624714],[5.8888148086031524,60.211869766707508],[5.8893549550335171,60.212077441137971],[5.8898114821022283,60.212213981924918],[5.8902602815450358,60.212242441105701],[5.890701377950549,60.212351701586869],[5.8905779597883736,60.212510527320084],[5.8904750047457801,60.212642934925711],[5.890114948804956,60.212823149818924],[5.8896593357285374,60.212866427297726],[5.8891719576815156,60.212805742340109],[5.8891240375262424,60.212799802667597],[5.8889369610837257,60.212867369178632],[5.8889475881705255,60.213137148264295],[5.8890621756630823,60.213433286679809],[5.8891005448630063,60.213532463321798],[5.8891651760366797,60.213699431678215],[5.8890811020154068,60.21377404177008],[5.8889876238273144,60.213856947536968],[5.8889142854699514,60.213878890102386],[5.88870896731689,60.2139402226694],[5.8885769464246716,60.214188825457349],[5.8887110058786192,60.214299781025183],[5.8887745322974716,60.214299933194837],[5.8890386855636496,60.214300333684712],[5.8891261773434929,60.214300518701599],[5.8890773817934052,60.214434055787137],[5.8890270434739573,60.214445842750557],[5.888815556755012,60.214495451697928],[5.8887634658784833,60.214507659434837],[5.8887128907556034,60.214659238390453],[5.8885414415715687,60.214754005300804],[5.8883092510798525,60.215108095660156],[5.8882953499310426,60.215826510085471],[5.888395821910251,60.216098445343377],[5.8886809667522,60.216354340998137],[5.8887454228632725,60.216412215982253],[5.88886308949529,60.216478565822811],[5.8892940611895916,60.216721603881467],[5.8895550163026273,60.217015315322513],[5.8895200807716224,60.217194095755005],[5.8891478078081416,60.217311287505439],[5.8887961616508955,60.217307992287253],[5.888516244639777,60.217305416233721],[5.888510269721392,60.217305996549193],[5.8879876992789342,60.217355930853735],[5.8876168081684987,60.217266257505223],[5.8871634466907157,60.216905260810769],[5.8866358082113175,60.216946704782551],[5.88649753822689,60.216880642675115],[5.8863216335429556,60.216831584534468],[5.8859547165258359,60.217083434876123],[5.8857669817191596,60.217348601576347],[5.8859517339212823,60.217685392674312],[5.8856622912954117,60.217710347593354],[5.8854599634002271,60.21772778097688],[5.8846867761459949,60.217502953252044],[5.8841086141571877,60.217507448505167],[5.8837910423417004,60.217616667635497],[5.8837395602059388,60.217777220712399],[5.883560355817103,60.217952782473525],[5.8836085994299543,60.218205469193968],[5.88409798563523,60.218378646415303],[5.884949300984661,60.218542464466836],[5.8854556169757242,60.218536421556514],[5.886175085507257,60.218948754370928],[5.8862574543285566,60.219031549505559],[5.886135741545254,60.219172416762099],[5.8862694302206453,60.219283439070644],[5.8868437727930649,60.219323855404383],[5.8871717745441936,60.219302019852485],[5.8874436477559406,60.219284068151332],[5.8875352299077433,60.219079477847643],[5.8876115845730439,60.219036416036651],[5.8878784920416205,60.219078399179686],[5.8883284249786918,60.219286873985254],[5.8887918808209276,60.219351594617592],[5.889122844054282,60.21951784685686],[5.8896363291905311,60.21977581396078],[5.8899223455088716,60.220065746090725],[5.8900709189281875,60.220216474423133],[5.8901816053427334,60.220328610481637],[5.8902615828336966,60.220409610180681],[5.8902937025414364,60.220442199701239],[5.8903082099565873,60.220446186498719],[5.8903136149869271,60.220447645216439],[5.8903126881277856,60.220449659641815],[5.8902895230337124,60.220497399875761],[5.8902234417589368,60.220634259661253],[5.8903238939068245,60.2207173998992],[5.8900452508057413,60.220989382249101],[5.8899126171170479,60.221058281844222],[5.8898189832527708,60.221280625441246],[5.8901289837527715,60.221440723141384],[5.890507039940025,60.221535492043927],[5.8911171358890693,60.221688528557578],[5.8915333318542062,60.221869078458283],[5.8924231106067095,60.222034149094668],[5.8946930206613644,60.222455230370073],[5.895228716663814,60.222521671187799],[5.8957275269695106,60.222785011159296],[5.8969399037606571,60.223909538456539],[5.8969543473620352,60.223931956102057],[5.8969870695008,60.223982569447564],[5.8969408623210668,60.224089356812158],[5.8966141767682192,60.22429738810655],[5.8958922178166686,60.224289462041476],[5.8957249324865266,60.224339341431183],[5.89512947540402,60.224334470317658],[5.8949524888588192,60.224294298282203],[5.8948090017734227,60.224093410537137],[5.8944636173490448,60.223734857608584],[5.8939527750011713,60.22359702238105],[5.8933227318010344,60.223537874462721],[5.8929321937946213,60.223501265162433],[5.8927042991862129,60.223621684730915],[5.8918353386871605,60.223637270226426],[5.8911673443533088,60.224017051255068],[5.890705765108164,60.224311618044538],[5.8905781173046154,60.224515250109441],[5.8907937154452572,60.22471806304096],[5.8911560102495333,60.224897230796131],[5.8914283829377645,60.225074420348399],[5.8924645083586018,60.225386262074011],[5.8933325486455663,60.225568343914638],[5.8948108052959842,60.225791650950249],[5.8964364998319327,60.225793785215643],[5.8968020277467419,60.225748401090122],[5.8970706779363811,60.22577267949783],[5.8975938452036392,60.225915329390276],[5.897828003123994,60.225979153270977],[5.8982342283082767,60.226267164473747],[5.8985125443109618,60.226381667801888],[5.8988671418011442,60.226452735338704],[5.8989553383420326,60.226474560114958],[5.8995908433532644,60.226631387056081],[5.8999470909221472,60.226873370026212],[5.8999999825030596,60.226941553809183],[5.9003496872844385,60.227394826172279],[5.9013528108170616,60.227867521121702],[5.9028870062312029,60.228649303083024],[5.9029241180649228,60.22882990217915],[5.9027957670559807,60.229231320199347],[5.903107123837759,60.229571044621963],[5.9041818510881576,60.230243053430428],[5.9044059187483562,60.230356141996957],[5.904641460754485,60.23054132679998],[5.9049860002553265,60.23072012655873],[5.9052553863538311,60.231121740513771],[5.9053157749340492,60.231437607244239],[5.9056279910403546,60.231925954744206],[5.905630620134259,60.231930203166684],[5.9056503479724594,60.232541849250737],[5.9056583254501733,60.23278450740294],[5.9060146824275224,60.233412817143758],[5.9065177534235698,60.234017553580031],[5.9065242642662819,60.234323370531136],[5.9065243079153609,60.234332320378492],[5.9064119941991065,60.234464365858642],[5.9062796980864087,60.234619792575032],[5.9062395864621342,60.234667087229205],[5.9062065640080252,60.234696164677686],[5.9060621697723796,60.234824637823316],[5.9059591090043355,60.235117371463083],[5.9059062946375196,60.235267354832061],[5.9058893751614479,60.235314896346416],[5.9059308719931378,60.235450610642545],[5.9063719772112808,60.23594614300287],[5.9066546124982731,60.23601564609384],[5.9068718142916641,60.236011674056932],[5.907047319849366,60.236258404885263],[5.907239693316364,60.236325737442492],[5.9073371583991765,60.236415974396756],[5.9078707688128533,60.236915540990225],[5.9080059956393285,60.237206300264681],[5.9088977194619341,60.237523556502168],[5.9090254706718612,60.237614708851737],[5.9091318496079843,60.237717308079084],[5.9091659805075896,60.237745421362973],[5.9094198103214053,60.238221950463306],[5.9094423908092191,60.238264086882367],[5.9096032821693134,60.238405785766986],[5.9098929475017199,60.23866102805566],[5.9101109438906327,60.238805223864077],[5.9106119202831895,60.239136238353922],[5.9108081676680122,60.239265917358622],[5.9108795460438444,60.239312959335358],[5.911155217333337,60.239424444700838],[5.9112799394954632,60.239475079393884],[5.9113697974918376,60.239599128364993],[5.9114720600350585,60.239739939122281],[5.9118022438393742,60.239951070874213],[5.9119293976172438,60.240032056764811],[5.9125489326625074,60.24042745866862],[5.9125970928063145,60.240458075657202],[5.9127189683324701,60.240585960431922],[5.913001977525334,60.240882757079348],[5.9131407791193089,60.241028799586076],[5.9139457110568898,60.241873484421831],[5.914711126900813,60.242169141717255],[5.9147129648305041,60.242169720423213],[5.9147163733887345,60.242172486066828],[5.9150630822784027,60.24248343333096],[5.9153817532862716,60.242553684120935],[5.9159358823176005,60.242620481887236],[5.916522106243673,60.2428314645584],[5.9167402854010076,60.242908784953059],[5.9170101794661676,60.243112758327385],[5.917648389427157,60.243244361830477],[5.9177844009343854,60.243337338660446],[5.9178714277806499,60.243564118573175],[5.9181828716401466,60.243715016076791],[5.9187177182025899,60.243790411401484],[5.9191784900875737,60.244079752993628],[5.9199040237955511,60.244437871874986],[5.9199906576062622,60.244862172401071],[5.9194394467979849,60.24495735852706],[5.9195249772942891,60.245201926839407],[5.9195288670185722,60.245204273662111]],[[5.8712082521127353,60.215855671264492],[5.8722970042638822,60.215989148246209],[5.8726728324864705,60.215899000244001],[5.8727406011777834,60.21588273480279],[5.872882159801093,60.215724366241034],[5.8728483646272274,60.215568201531191],[5.8727944477695431,60.215317914935291],[5.8728521198534498,60.215313692012707],[5.8730673696461153,60.215297446121241],[5.8734706481528445,60.215235048297089],[5.8738266198844586,60.215099687697631],[5.873835405912506,60.215089723226981],[5.8740218548122929,60.214881959650626],[5.8741498448014617,60.214738916627809],[5.8741927662501414,60.214668057043319],[5.8742684256706665,60.21427031970692],[5.8743373501145131,60.213907632936127],[5.8743536372123861,60.213889693482194],[5.8744585423349633,60.213775867176835],[5.8744445463286015,60.21370783743685],[5.8744385275139095,60.213679403415483],[5.8743843232337998,60.213414547568526],[5.8743242156141751,60.213355519728502],[5.8742632379424418,60.213295708487784],[5.8739715144772218,60.213009313881841],[5.8737036624715007,60.212787476144079],[5.8734351399319307,60.212763152906227],[5.8731545150769255,60.212675720401336],[5.8729955922997847,60.212652402894626],[5.8723531542679366,60.212557939672578],[5.871813651089127,60.212536229083888],[5.871502183644008,60.212582849378094],[5.8709066725151482,60.212577583052813],[5.8703699288852027,60.212717741209325],[5.8701003096641742,60.21289107832051],[5.8697305138033249,60.21298118439131],[5.868519129736752,60.213186394994345],[5.8681073011005473,60.213338288740751],[5.8677934028640539,60.213411664338366],[5.8675694424121394,60.213676013023886],[5.8676132029764467,60.213784882112677],[5.8680088604314191,60.213991927457236],[5.868147908907674,60.214237734148234],[5.8679256844562708,60.214484219177734],[5.8680570265851806,60.214622123497634],[5.8684261152842083,60.214729625558128],[5.8687384146937669,60.21486282811113],[5.8689564375542487,60.215227357112632],[5.8691308276493723,60.215671732361059],[5.8694147405023891,60.215723521574546],[5.8706753663514322,60.215762207015722],[5.8712082521127353,60.215855671264492]],[[5.8799168952442749,60.215054530785011],[5.8800592122359117,60.215028879515557],[5.8800691226791351,60.215027216800408],[5.8801372937833509,60.215014681071686],[5.8801438816680678,60.214974288235062],[5.8801808621555365,60.214746214687196],[5.8802325337258186,60.214585675652366],[5.880463743018276,60.214429358597236],[5.8805486790600341,60.21429661126529],[5.8808764104194919,60.214268448686546],[5.8809526083534758,60.214225289679817],[5.8805561869605159,60.214027181582082],[5.8805465837514586,60.21395249873774],[5.8805117782061895,60.213678509039568],[5.880504639740221,60.213621620177591],[5.8803250757331789,60.213419655681619],[5.8797842751633809,60.213218313583695],[5.8788474605837537,60.21319628965982],[5.8783062065477596,60.213192469783749],[5.8779940689422201,60.213436709738595],[5.8778772710608385,60.213425085949723],[5.8777614137463869,60.213413346525407],[5.8778452387737357,60.213232714984294],[5.8778521568471138,60.213217740529799],[5.8776667872281099,60.213078722071181],[5.8769890855748335,60.212990784373595],[5.8764082581800894,60.213210602709175],[5.8760008313543874,60.213506431642962],[5.8759159830878991,60.213639453992904],[5.8756861623141594,60.21377778493941],[5.8756912551247016,60.213912617122801],[5.8752238875010416,60.214269990062327],[5.8754144836089468,60.214355330045095],[5.8758674673774287,60.214339120910978],[5.8764019335860489,60.214225894755167],[5.8769484818033666,60.214175863563888],[5.8772581739485714,60.214335976222721],[5.8775235524565392,60.214584926884243],[5.8786098833048079,60.214745116083492],[5.8788407654750499,60.21478651981338],[5.8794163693677177,60.214809165991227],[5.8799168952442749,60.215054530785011]],[[5.8697569655161397,60.206835532082316],[5.8695234418082736,60.207009834827616],[5.8694900653586046,60.207112083296664],[5.8694472303351866,60.207241601457035],[5.8694455821574145,60.207284415793474],[5.8694336707187666,60.207573787289093],[5.8696594297964912,60.207668899463712],[5.8699702638937969,60.207690475800234],[5.870251375796955,60.207709897963056],[5.8706999471062042,60.207549706585127],[5.8711889098374064,60.207534388436336],[5.8713826548340293,60.207395099396606],[5.8714315090625497,60.207261570272465],[5.8715522009975789,60.207129592540177],[5.871560983905499,60.207039916430084],[5.8710188087227291,60.206856329979757],[5.8705439010100138,60.206800140891218],[5.8700725575460311,60.206744197412377],[5.8697569655161397,60.206835532082316]],[[5.8654917752495006,60.213902122818588],[5.8657241419861119,60.213901899659419],[5.8657549071085713,60.213840772041166],[5.8657686426146824,60.213813166681049],[5.8659016505902528,60.213744316611432],[5.8665716549648002,60.213724319869378],[5.8667587301949036,60.21365696353152],[5.8667980679217502,60.213433120105194],[5.8669326931883781,60.213157689791153],[5.8668555040317703,60.213021013167094],[5.8661350052597587,60.21300415552961],[5.8654038356492482,60.213094643751049],[5.864989524058438,60.213273469013494],[5.8644643457624168,60.21328806070219],[5.8644471157118856,60.21346734717261],[5.8650909838239293,60.213536643157688],[5.8653551157377501,60.213605776719668],[5.8654949150636879,60.213653894563485],[5.8656674164852447,60.213738897373034],[5.865538515327466,60.213762663164658],[5.8655076142538771,60.213787359389428],[5.8653628989948352,60.213902482564585],[5.8654917752495006,60.213902122818588]],[[5.8702173281268992,60.216398301694518],[5.8695924217635627,60.216509295490205],[5.8695422640207351,60.216660990804634],[5.8698964846919139,60.216732208745704],[5.8699059118884982,60.216822335687226],[5.8697172386315399,60.216907661506944],[5.8698554483299787,60.216973829109712],[5.8711595299463477,60.21693282913872],[5.8712539913448056,60.216890038397167],[5.8710343359406165,60.216732092129867],[5.871033313676131,60.216552353104987],[5.8707570714362136,60.216420032576323],[5.8702173281268992,60.216398301694518]],[[5.8868283703228341,60.21434551745584],[5.8867324891545101,60.214594724800428],[5.8869163060100513,60.214751785905854],[5.88709155839934,60.214998537208025],[5.8870968266646226,60.215133559658135],[5.8874495228858574,60.215222607954956],[5.8875439340183862,60.215179893620288],[5.8875936387674939,60.215037291927125],[5.8875486708198439,60.21474877571697],[5.8872791849624049,60.214544751569889],[5.8872659913582019,60.214301725343553],[5.8871884859499968,60.214165223645573],[5.8869938552506902,60.214124719413824],[5.8868283703228341,60.21434551745584]],[[5.8801576171687291,60.212139813738929],[5.8807857643588894,60.21218155286337],[5.8809204671735236,60.212094822265435],[5.8808354708927979,60.21185024993742],[5.8803350095888911,60.211604800943462],[5.8798322673346268,60.211575097538159],[5.8798348948600054,60.211736960670194],[5.8799687859709397,60.211847734573233],[5.8798342599499911,60.211934476516255],[5.8798771812168011,60.212052318962108],[5.8801576171687291,60.212139813738929]],[[5.8719420933467177,60.212134924784721],[5.8717191124974955,60.212201513130914],[5.8717602425210531,60.212337310531879],[5.8718984628770867,60.212403386991575],[5.8724868205610319,60.212453611736549],[5.8730109361520668,60.212498472720704],[5.8732058604502155,60.212515160106364],[5.873302947716347,60.212445438071477],[5.8731612245662488,60.212226565629443],[5.8730394233862366,60.21221142694899],[5.8729827488702311,60.212204331535496],[5.8727231198705772,60.212313566734721],[5.8727194659388466,60.212314939973737],[5.8726702828694428,60.212290831282203],[5.8723915733219103,60.21215445557452],[5.8719420933467177,60.212134924784721]],[[5.8699055588566846,60.21084047863517],[5.8699717817668944,60.210830343750224],[5.870058373603757,60.210490935701422],[5.8699743036170773,60.210426084777801],[5.869240778969302,60.210354834651831],[5.8691600143398484,60.210442767946425],[5.8691944852417004,60.210650224840819],[5.8695685526959247,60.210892731921454],[5.8699055588566846,60.21084047863517]],[[5.8689267947270363,60.210805707909039],[5.8684789956984913,60.210579409121408],[5.8685252719991459,60.210472633433511],[5.8682636001092954,60.210376653629346],[5.8678139949565136,60.210357008347358],[5.8676629922338677,60.210425333154738],[5.8678011713121467,60.21049150219207],[5.8679796335914212,60.210513743012484],[5.8680835015224888,60.210561081137719],[5.8679789028008358,60.210711345848622],[5.8686677411620405,60.210871413628738],[5.8689267947270363,60.210805707909039]],[[5.8702436109120919,60.207979312770725],[5.8702085593590718,60.20815817453763],[5.8706057636556102,60.208158631249155],[5.8708828531884754,60.208093270973244],[5.8707515475044421,60.207955281170094],[5.8704830422767635,60.207931041507592],[5.8702436109120919,60.207979312770725]],[[5.8720626220727459,60.207370801683425],[5.8719953567218042,60.207436536518451],[5.8720515546497207,60.207487432027357],[5.8721543309324638,60.207539300485074],[5.8722546470886794,60.207528006085852],[5.872283374102274,60.207416397046252],[5.8722179225452864,60.207370010912065],[5.8720626220727459,60.207370801683425]],[[5.8764745776104492,60.207200805985906],[5.876616981159791,60.207222070812733],[5.8766975392442298,60.207134119983586],[5.8765262768344568,60.207040179936925],[5.8764307940932747,60.207091939407348],[5.8764745776104492,60.207200805985906]],[[5.8722567813161266,60.211486351588682],[5.8720807747670802,60.211437174566974],[5.8719865089674457,60.211479978628077],[5.8719435627636392,60.211550926124374],[5.8720859816426998,60.211572196205061],[5.8722567813161266,60.211486351588682]]]},"properties":{"objectid":223637,"objekttype":"Innsjø","vatnlnr":2043,"navn":"Skogseidvatnet","hoyde":12,"areal_km2":5.2564000000000002,"magasinnr":null,"magkategori":null,"magformal_liste":null,"vassdragsnr":"053.C1","elvenavnhierarki":"Sævareidvassdraget","vassomr":"053","grensesjo":null,"land1":"NO","land2":null,"arealnorge_km2":5.2564000000000002,"kommnr":"4624","kommune":"Bjørnafjorden","antallkommuner":1,"dybdekart":null,"nedborfeltareal_km2":97.689999999999998,"ftema":3101,"globalid":null,"st_area(shape)":5256386.5536999991,"st_perimeter(shape)":23832.862237713063}}]}